{
  "type": "FeatureCollection",
  "features": [
    {
      "type": "Feature",
      "properties": {
        "norad_id": 32376,
        "name": "COSMO-SKYMED 2",
        "group": "resource",
        "lat": -1.9579711014135779,
        "lon": 177.401958247554,
        "alt_km": 625.7119562943453,
        "timestamp": "2025-12-21T22:41:41.104175+00:00",
        "meta_object_name": "COSMO-SKYMED 2",
        "meta_object_id": "2007-059A",
        "meta_epoch": "2025-12-21T14:36:08.530848",
        "meta_mean_motion": 14.82152751,
        "meta_eccentricity": 0.00013361,
        "meta_inclination": 97.8804,
        "meta_ra_of_asc_node": 176.7987,
        "meta_arg_of_pericenter": 83.0429,
        "meta_mean_anomaly": 277.0936,
        "meta_ephemeris_type": 0,
        "meta_classification_type": "U",
        "meta_norad_cat_id": 32376,
        "meta_element_set_no": 999,
        "meta_rev_at_epoch": 97569,
        "meta_bstar": 6.060852e-05,
        "meta_mean_motion_dot": 4.3e-06,
        "meta_mean_motion_ddot": 0,
        "tle_line1": "1 32376U 07059A   25355.60843207  .00000430  00000+0  60609-4 0  9993",
        "tle_line2": "2 32376  97.8804 176.7987 0001336  83.0429 277.0936 14.82152751975699"
      },
      "geometry": {
        "type": "Point",
        "coordinates": [
          177.401958247554,
          -1.9579711014135779
        ]
      }
    },
    {
      "type": "Feature",
      "properties": {
        "norad_id": 32382,
        "name": "RADARSAT-2",
        "group": "resource",
        "lat": 20.679708400297585,
        "lon": -2.864818976815269,
        "alt_km": 791.315327018191,
        "timestamp": "2025-12-21T22:41:41.104186+00:00",
        "meta_object_name": "RADARSAT-2",
        "meta_object_id": "2007-061A",
        "meta_epoch": "2025-12-21T14:12:02.536128",
        "meta_mean_motion": 14.29983459,
        "meta_eccentricity": 0.00011383,
        "meta_inclination": 98.579,
        "meta_ra_of_asc_node": 0.053,
        "meta_arg_of_pericenter": 84.3993,
        "meta_mean_anomaly": 275.7319,
        "meta_ephemeris_type": 0,
        "meta_classification_type": "U",
        "meta_norad_cat_id": 32382,
        "meta_element_set_no": 999,
        "meta_rev_at_epoch": 94057,
        "meta_bstar": -3.7334197e-05,
        "meta_mean_motion_dot": -1.4e-06,
        "meta_mean_motion_ddot": 0,
        "tle_line1": "1 32382U 07061A   25355.59169602 -.00000140  00000+0 -37334-4 0  9990",
        "tle_line2": "2 32382  98.5790   0.0530 0001138  84.3993 275.7319 14.29983459940578"
      },
      "geometry": {
        "type": "Point",
        "coordinates": [
          -2.864818976815269,
          20.679708400297585
        ]
      }
    },
    {
      "type": "Feature",
      "properties": {
        "norad_id": 32783,
        "name": "CARTOSAT-2A",
        "group": "resource",
        "lat": 31.32702253805523,
        "lon": 40.70056695352174,
        "alt_km": 626.6417432458093,
        "timestamp": "2025-12-21T22:41:41.104197+00:00",
        "meta_object_name": "CARTOSAT-2A",
        "meta_object_id": "2008-021A",
        "meta_epoch": "2025-12-21T14:26:00.633408",
        "meta_mean_motion": 14.78948333,
        "meta_eccentricity": 0.00112052,
        "meta_inclination": 97.792,
        "meta_ra_of_asc_node": 45.148,
        "meta_arg_of_pericenter": 335.9079,
        "meta_mean_anomaly": 24.1607,
        "meta_ephemeris_type": 0,
        "meta_classification_type": "U",
        "meta_norad_cat_id": 32783,
        "meta_element_set_no": 999,
        "meta_rev_at_epoch": 95255,
        "meta_bstar": -8.109024e-06,
        "meta_mean_motion_dot": -1.1e-06,
        "meta_mean_motion_ddot": 0,
        "tle_line1": "1 32783U 08021A   25355.60139622 -.00000110  00000+0 -81090-5 0  9999",
        "tle_line2": "2 32783  97.7920  45.1480 0011205 335.9079  24.1607 14.78948333952552"
      },
      "geometry": {
        "type": "Point",
        "coordinates": [
          40.70056695352174,
          31.32702253805523
        ]
      }
    },
    {
      "type": "Feature",
      "properties": {
        "norad_id": 33320,
        "name": "HUANJING 1A (HJ-1A)",
        "group": "resource",
        "lat": 44.19645401481846,
        "lon": -23.6536418995471,
        "alt_km": 604.3050732389011,
        "timestamp": "2025-12-21T22:41:41.104207+00:00",
        "meta_object_name": "HUANJING 1A (HJ-1A)",
        "meta_object_id": "2008-041A",
        "meta_epoch": "2025-12-21T14:24:01.026432",
        "meta_mean_motion": 14.83419753,
        "meta_eccentricity": 0.00194861,
        "meta_inclination": 97.6538,
        "meta_ra_of_asc_node": 343.5284,
        "meta_arg_of_pericenter": 6.4177,
        "meta_mean_anomaly": 353.7283,
        "meta_ephemeris_type": 0,
        "meta_classification_type": "U",
        "meta_norad_cat_id": 33320,
        "meta_element_set_no": 999,
        "meta_rev_at_epoch": 93207,
        "meta_bstar": 0.00016380609,
        "meta_mean_motion_dot": 1.298e-05,
        "meta_mean_motion_ddot": 0,
        "tle_line1": "1 33320U 08041A   25355.60001188  .00001298  00000+0  16381-3 0  9999",
        "tle_line2": "2 33320  97.6538 343.5284 0019486   6.4177 353.7283 14.83419753932070"
      },
      "geometry": {
        "type": "Point",
        "coordinates": [
          -23.6536418995471,
          44.19645401481846
        ]
      }
    },
    {
      "type": "Feature",
      "properties": {
        "norad_id": 33321,
        "name": "HUANJING 1B (HJ-1B)",
        "group": "resource",
        "lat": -65.44031018439637,
        "lon": 150.45184068350818,
        "alt_km": 652.5999255113384,
        "timestamp": "2025-12-21T22:41:41.104217+00:00",
        "meta_object_name": "HUANJING 1B (HJ-1B)",
        "meta_object_id": "2008-041B",
        "meta_epoch": "2025-12-21T15:06:32.251680",
        "meta_mean_motion": 14.82843064,
        "meta_eccentricity": 0.00380074,
        "meta_inclination": 97.6397,
        "meta_ra_of_asc_node": 347.2304,
        "meta_arg_of_pericenter": 47.6189,
        "meta_mean_anomaly": 312.8231,
        "meta_ephemeris_type": 0,
        "meta_classification_type": "U",
        "meta_norad_cat_id": 33321,
        "meta_element_set_no": 999,
        "meta_rev_at_epoch": 93209,
        "meta_bstar": 0.00012289125,
        "meta_mean_motion_dot": 9.55e-06,
        "meta_mean_motion_ddot": 0,
        "tle_line1": "1 33321U 08041B   25355.62953995  .00000955  00000+0  12289-3 0  9996",
        "tle_line2": "2 33321  97.6397 347.2304 0038007  47.6189 312.8231 14.82843064932094"
      },
      "geometry": {
        "type": "Point",
        "coordinates": [
          150.45184068350818,
          -65.44031018439637
        ]
      }
    },
    {
      "type": "Feature",
      "properties": {
        "norad_id": 33331,
        "name": "GEOEYE 1",
        "group": "resource",
        "lat": -5.763060974267329,
        "lon": 67.93607745558747,
        "alt_km": 682.3754133557268,
        "timestamp": "2025-12-21T22:41:41.104228+00:00",
        "meta_object_name": "GEOEYE 1",
        "meta_object_id": "2008-042A",
        "meta_epoch": "2025-12-21T12:53:02.778144",
        "meta_mean_motion": 14.64711239,
        "meta_eccentricity": 0.00028511,
        "meta_inclination": 98.1242,
        "meta_ra_of_asc_node": 66.7065,
        "meta_arg_of_pericenter": 246.4092,
        "meta_mean_anomaly": 113.6811,
        "meta_ephemeris_type": 0,
        "meta_classification_type": "U",
        "meta_norad_cat_id": 33331,
        "meta_element_set_no": 999,
        "meta_rev_at_epoch": 92414,
        "meta_bstar": 9.7712969e-05,
        "meta_mean_motion_dot": 4.73e-06,
        "meta_mean_motion_ddot": 0,
        "tle_line1": "1 33331U 08042A   25355.53683771  .00000473  00000+0  97713-4 0  9991",
        "tle_line2": "2 33331  98.1242  66.7065 0002851 246.4092 113.6811 14.64711239924143"
      },
      "geometry": {
        "type": "Point",
        "coordinates": [
          67.93607745558747,
          -5.763060974267329
        ]
      }
    },
    {
      "type": "Feature",
      "properties": {
        "norad_id": 33396,
        "name": "THEOS",
        "group": "resource",
        "lat": 5.692527333487469,
        "lon": -125.37339692777496,
        "alt_km": 827.0302534162065,
        "timestamp": "2025-12-21T22:41:41.104238+00:00",
        "meta_object_name": "THEOS",
        "meta_object_id": "2008-049A",
        "meta_epoch": "2025-12-21T15:06:49.009824",
        "meta_mean_motion": 14.20099116,
        "meta_eccentricity": 0.00012028,
        "meta_inclination": 98.5859,
        "meta_ra_of_asc_node": 53.4572,
        "meta_arg_of_pericenter": 93.8797,
        "meta_mean_anomaly": 266.2517,
        "meta_ephemeris_type": 0,
        "meta_classification_type": "U",
        "meta_norad_cat_id": 33396,
        "meta_element_set_no": 999,
        "meta_rev_at_epoch": 89276,
        "meta_bstar": 0.00013027467,
        "meta_mean_motion_dot": 2.35e-06,
        "meta_mean_motion_ddot": 0,
        "tle_line1": "1 33396U 08049A   25355.62973391  .00000235  00000+0  13027-3 0  9990",
        "tle_line2": "2 33396  98.5859  53.4572 0001202  93.8797 266.2517 14.20099116892768"
      },
      "geometry": {
        "type": "Point",
        "coordinates": [
          -125.37339692777496,
          5.692527333487469
        ]
      }
    }
  ]
}